{"type": "FeatureCollection", "features": [ {"type": "Feature", "properties": {"norad_id": 41785, "name": "ALSAT 1B", "group": "resource", "lat": -80.80595227905278, "lon": 130.6894282252115, "alt_km": 669.2445509458566, "timestamp": "2025-12-22T23:36:20.357172+00:00", "meta": {"OBJECT_NAME": "ALSAT 1B", "OBJECT_ID": "2016-059C", "EPOCH": "2025-12-22T14:14:55.582368", "MEAN_MOTION": 14.72084419, "ECCENTRICITY": 0.00108027, "INCLINATION": 97.7803, "RA_OF_ASC_NODE": 7.9579, "ARG_OF_PERICENTER": 75.6929, "MEAN_ANOMALY": 284.5478, "EPHEMERIS_TYPE": 0, "CLASSIFICATION_TYPE": "U", "NORAD_CAT_ID": 41785, "ELEMENT_SET_NO": 999, "REV_AT_EPOCH": 49459, "BSTAR": 5.6687532e-05, "MEAN_MOTION_DOT": 3.1e-06, "MEAN_MOTION_DDOT": 0}, "tle": {"line1": "1 41785U 16059C   25356.59369887  .00000310  00000+0  56688-4 0  9992", "line2": "2 41785  97.7803   7.9579 0010802  75.6929 284.5478 14.72084419494596"}}, "geometry": {"type": "Point", "coordinates": [130.6894282252115, -80.80595227905278]}}, {"type": "Feature", "properties": {"norad_id": 41787, "name": "PATHFINDER 1", "group": "resource", "lat": 10.70818684830047, "lon": -179.23023946116302, "alt_km": 681.2512499765426, "timestamp": "2025-12-22T23:36:20.357182+00:00", "meta": {"OBJECT_NAME": "PATHFINDER 1", "OBJECT_ID": "2016-059E", "EPOCH": "2025-12-22T13:01:13.857600", "MEAN_MOTION": 14.67337451, "ECCENTRICITY": 0.00297381, "INCLINATION": 97.8137, "RA_OF_ASC_NODE": 358.8612, "ARG_OF_PERICENTER": 51.3287, "MEAN_ANOMALY": 309.0572, "EPHEMERIS_TYPE": 0, "CLASSIFICATION_TYPE": "U", "NORAD_CAT_ID": 41787, "ELEMENT_SET_NO": 999, "REV_AT_EPOCH": 49380, "BSTAR": 0.00013297129, "MEAN_MOTION_DOT": 7.09e-06, "MEAN_MOTION_DDOT": 0}, "tle": {"line1": "1 41787U 16059E   25356.54252150  .00000709  00000+0  13297-3 0  9993", "line2": "2 41787  97.8137 358.8612 0029738  51.3287 309.0572 14.67337451493803"}}, "geometry": {"type": "Point", "coordinates": [-179.23023946116302, 10.70818684830047]}}, {"type": "Feature", "properties": {"norad_id": 41790, "name": "SCATSAT 1", "group": "resource", "lat": -49.55279717738839, "lon": -135.89028191240973, "alt_km": 667.09480344247, "timestamp": "2025-12-22T23:36:20.357192+00:00", "meta": {"OBJECT_NAME": "SCATSAT 1", "OBJECT_ID": "2016-059H", "EPOCH": "2025-12-22T14:27:15.854112", "MEAN_MOTION": 14.78966851, "ECCENTRICITY": 0.00564639, "INCLINATION": 98.1449, "RA_OF_ASC_NODE": 53.3952, "ARG_OF_PERICENTER": 96.9229, "MEAN_ANOMALY": 263.8409, "EPHEMERIS_TYPE": 0, "CLASSIFICATION_TYPE": "U", "NORAD_CAT_ID": 41790, "ELEMENT_SET_NO": 999, "REV_AT_EPOCH": 7548, "BSTAR": 0.00017791286, "MEAN_MOTION_DOT": 1.292e-05, "MEAN_MOTION_DDOT": 0}, "tle": {"line1": "1 41790U 16059H   25356.60226683  .00001292  00000+0  17791-3 0  9997", "line2": "2 41790  98.1449  53.3952 0056463  96.9229 263.8409 14.78966851 75487"}}, "geometry": {"type": "Point", "coordinates": [-135.89028191240973, -49.55279717738839]}}, {"type": "Feature", "properties": {"norad_id": 41875, "name": "GOKTURK 1A", "group": "resource", "lat": 76.22461612622845, "lon": -146.5228996217873, "alt_km": 676.0590672547378, "timestamp": "2025-12-22T23:36:20.357203+00:00", "meta": {"OBJECT_NAME": "GOKTURK 1A", "OBJECT_ID": "2016-073A", "EPOCH": "2025-12-22T15:02:17.451168", "MEAN_MOTION": 14.62789608, "ECCENTRICITY": 0.00012887, "INCLINATION": 98.1433, "RA_OF_ASC_NODE": 248.8599, "ARG_OF_PERICENTER": 83.0655, "MEAN_ANOMALY": 277.0694, "EPHEMERIS_TYPE": 0, "CLASSIFICATION_TYPE": "U", "NORAD_CAT_ID": 41875, "ELEMENT_SET_NO": 999, "REV_AT_EPOCH": 48301, "BSTAR": 7.8480153e-05, "MEAN_MOTION_DOT": 3.54e-06, "MEAN_MOTION_DDOT": 0}, "tle": {"line1": "1 41875U 16073A   25356.62659087  .00000354  00000+0  78480-4 0  9998", "line2": "2 41875  98.1433 248.8599 0001288  83.0655 277.0694 14.62789608483018"}}, "geometry": {"type": "Point", "coordinates": [-146.5228996217873, 76.22461612622845]}}, {"type": "Feature", "properties": {"norad_id": 41877, "name": "RESOURCESAT-2A", "group": "resource", "lat": 50.69511367619301, "lon": 55.90436793962576, "alt_km": 816.2095193797322, "timestamp": "2025-12-22T23:36:20.357213+00:00", "meta": {"OBJECT_NAME": "RESOURCESAT-2A", "OBJECT_ID": "2016-074A", "EPOCH": "2025-12-22T14:55:05.145312", "MEAN_MOTION": 14.2160409, "ECCENTRICITY": 0.0001479, "INCLINATION": 98.7748, "RA_OF_ASC_NODE": 66.4201, "ARG_OF_PERICENTER": 209.6695, "MEAN_ANOMALY": 150.4399, "EPHEMERIS_TYPE": 0, "CLASSIFICATION_TYPE": "U", "NORAD_CAT_ID": 41877, "ELEMENT_SET_NO": 999, "REV_AT_EPOCH": 46921, "BSTAR": 0.00018307976, "MEAN_MOTION_DOT": 3.57e-06, "MEAN_MOTION_DDOT": 0}, "tle": {"line1": "1 41877U 16074A   25356.62158733  .00000357  00000+0  18308-3 0  9998", "line2": "2 41877  98.7748  66.4201 0001479 209.6695 150.4399 14.21604090469219"}}, "geometry": {"type": "Point", "coordinates": [55.90436793962576, 50.69511367619301]}}, {"type": "Feature", "properties": {"norad_id": 41948, "name": "CARTOSAT-2D", "group": "resource", "lat": 54.14099243308827, "lon": 43.91292959529828, "alt_km": 501.9003309523314, "timestamp": "2025-12-22T23:36:20.357223+00:00", "meta": {"OBJECT_NAME": "CARTOSAT-2D", "OBJECT_ID": "2017-008A", "EPOCH": "2025-12-22T09:08:22.104960", "MEAN_MOTION": 15.193474, "ECCENTRICITY": 0.00053551, "INCLINATION": 97.4376, "RA_OF_ASC_NODE": 53.7321, "ARG_OF_PERICENTER": 134.1961, "MEAN_ANOMALY": 225.9714, "EPHEMERIS_TYPE": 0, "CLASSIFICATION_TYPE": "U", "NORAD_CAT_ID": 41948, "ELEMENT_SET_NO": 999, "REV_AT_EPOCH": 49073, "BSTAR": 0.00028059148, "MEAN_MOTION_DOT": 5.865e-05, "MEAN_MOTION_DDOT": 0}, "tle": {"line1": "1 41948U 17008A   25356.38081140  .00005865  00000+0  28059-3 0  9998", "line2": "2 41948  97.4376  53.7321 0005355 134.1961 225.9714 15.19347400490735"}}, "geometry": {"type": "Point", "coordinates": [43.91292959529828, 54.14099243308827]}}, {"type": "Feature", "properties": {"norad_id": 42063, "name": "SENTINEL-2B", "group": "resource", "lat": -0.7756618867998762, "lon": 69.40283860920124, "alt_km": 792.0552223137565, "timestamp": "2025-12-22T23:36:20.357234+00:00", "meta": {"OBJECT_NAME": "SENTINEL-2B", "OBJECT_ID": "2017-013A", "EPOCH": "2025-12-22T13:32:21.689952", "MEAN_MOTION": 14.30814366, "ECCENTRICITY": 0.00011846, "INCLINATION": 98.5709, "RA_OF_ASC_NODE": 68.8724, "ARG_OF_PERICENTER": 91.3433, "MEAN_ANOMALY": 268.7886, "EPHEMERIS_TYPE": 0, "CLASSIFICATION_TYPE": "U", "NORAD_CAT_ID": 42063, "ELEMENT_SET_NO": 999, "REV_AT_EPOCH": 45938, "BSTAR": 7.8399828e-05, "MEAN_MOTION_DOT": 1.62e-06, "MEAN_MOTION_DDOT": 0}, "tle": {"line1": "1 42063U 17013A   25356.56413993  .00000162  00000+0  78400-4 0  9999", "line2": "2 42063  98.5709  68.8724 0001184  91.3433 268.7886 14.30814366459387"}}, "geometry": {"type": "Point", "coordinates": [69.40283860920124, -0.7756618867998762]}}, {"type": "Feature", "properties": {"norad_id": 42767, "name": "CARTOSAT-2E", "group": "resource", "lat": -36.17206550261581, "lon": 59.92956970564738, "alt_km": 515.6257508065246, "timestamp": "2025-12-22T23:36:20.357244+00:00", "meta": {"OBJECT_NAME": "CARTOSAT-2E", "OBJECT_ID": "2017-036C", "EPOCH": "2025-12-22T19:01:26.835744", "MEAN_MOTION": 15.19288433, "ECCENTRICITY": 0.0002639, "INCLINATION": 97.4537, "RA_OF_ASC_NODE": 54.2483, "ARG_OF_PERICENTER": 190.8744, "MEAN_ANOMALY": 169.2434, "EPHEMERIS_TYPE": 0, "CLASSIFICATION_TYPE": "U", "NORAD_CAT_ID": 42767, "ELEMENT_SET_NO": 999, "REV_AT_EPOCH": 47136, "BSTAR": 0.00019619, "MEAN_MOTION_DOT": 4.071e-05, "MEAN_MOTION_DDOT": 0}, "tle": {"line1": "1 42767U 17036C   25356.79267171  .00004071  00000+0  19619-3 0  9994", "line2": "2 42767  97.4537  54.2483 0002639 190.8744 169.2434 15.19288433471366"}}, "geometry": {"type": "Point", "coordinates": [59.92956970564738, -36.17206550261581]}}, {"type": "Feature", "properties": {"norad_id": 42920, "name": "FORMOSAT-5", "group": "resource", "lat": 18.781830302280675, "lon": 68.27030406485702, "alt_km": 726.042259516882, "timestamp": "2025-12-22T23:36:20.357254+00:00", "meta": {"OBJECT_NAME": "FORMOSAT-5", "OBJECT_ID": "2017-049A", "EPOCH": "2025-12-22T13:35:12.270336", "MEAN_MOTION": 14.5076588, "ECCENTRICITY": 0.00098231, "INCLINATION": 98.2441, "RA_OF_ASC_NODE": 70.6875, "ARG_OF_PERICENTER": 267.9728, "MEAN_ANOMALY": 92.0342, "EPHEMERIS_TYPE": 0, "CLASSIFICATION_TYPE": "U", "NORAD_CAT_ID": 42920, "ELEMENT_SET_NO": 999, "REV_AT_EPOCH": 44106, "BSTAR": 5.881464e-05, "MEAN_MOTION_DOT": 1.88e-06, "MEAN_MOTION_DDOT": 0}, "tle": {"line1": "1 42920U 17049A   25356.56611424  .00000188  00000+0  58815-4 0  9995", "line2": "2 42920  98.2441  70.6875 0009823 267.9728  92.0342 14.50765880441062"}}, "geometry": {"type": "Point", "coordinates": [68.27030406485702, 18.781830302280675]}}, {"type": "Feature", "properties": {"norad_id": 42969, "name": "SENTINEL-5P", "group": "resource", "lat": -18.83249574924818, "lon": -61.50115428973245, "alt_km": 832.2187736852675, "timestamp": "2025-12-22T23:36:20.357265+00:00", "meta": {"OBJECT_NAME": "SENTINEL-5P", "OBJECT_ID": "2017-064A", "EPOCH": "2025-12-22T08:28:13.032768", "MEAN_MOTION": 14.19519792, "ECCENTRICITY": 0.00010224, "INCLINATION": 98.78, "RA_OF_ASC_NODE": 294.8523, "ARG_OF_PERICENTER": 91.31, "MEAN_ANOMALY": 268.8193, "EPHEMERIS_TYPE": 0, "CLASSIFICATION_TYPE": "U", "NORAD_CAT_ID": 42969, "ELEMENT_SET_NO": 999, "REV_AT_EPOCH": 42447, "BSTAR": 5.5735992e-05, "MEAN_MOTION_DOT": 7.3e-07, "MEAN_MOTION_DDOT": 0}, "tle": {"line1": "1 42969U 17064A   25356.35292862  .00000073  00000+0  55736-4 0  9995", "line2": "2 42969  98.7800 294.8523 0001022  91.3100 268.8193 14.19519792424472"}}, "geometry": {"type": "Point", "coordinates": [-61.50115428973245, -18.83249574924818]}}]}